OSCAR 7 (AO-7)          
1 07530U 74089B   26177.30866214 -.00000031  00000+0  98450-4 0  9990
2 07530 101.9899 190.6503 0012642 113.2400 258.3057 12.53698198361668
PHASE 3B (AO-10)        
1 14129U 83058B   26174.68191131 -.00000085  00000+0  00000+0 0  9993
2 14129  25.9176 218.4895 6008564 117.4551 314.9460  2.05872578295624
UOSAT 2 (UO-11)         
1 14781U 84021B   26177.14831320  .00001146  00000+0  12217-3 0  9998
2 14781  97.8061 142.6230 0008417 144.7362 215.4415 14.90804114258468
LUSAT (LO-19)           
1 20442U 90005G   26176.97281662  .00000107  00000+0  54892-4 0  9998
2 20442  98.8847 199.0205 0011632 174.9940 185.1362 14.34125571903653
EYESAT A (AO-27)        
1 22825U 93061C   26177.15989310  .00000085  00000+0  49164-4 0  9997
2 22825  98.6877 244.5701 0009507  76.6745 283.5497 14.30944439708289
ITAMSAT (IO-26)         
1 22826U 93061D   26176.71721110  .00000085  00000+0  48755-4 0  9996
2 22826  98.6824 244.0460 0009906  62.8375 297.3817 14.31371492708539
RADIO ROSTO (RS15)      
1 23439U 94085A   26176.98488985 -.00000055  00000+0 -35815-3 0  9994
2 23439  64.8184 288.9880 0156238   2.2471 357.9123 11.27583444296891
JAS-2 (FO-29)           
1 24278U 96046B   26177.10925093 -.00000015  00000+0  17983-4 0  9998
2 24278  98.5233  24.7588 0350905  73.3487 290.5866 13.53274757474378
TECHSAT 1B (GO-32)      
1 25397U 98043D   26177.26621801  .00000061  00000+0  46673-4 0  9995
2 25397  99.0071 170.2540 0001510 145.7294 214.3982 14.24430022452622
ISS (ZARYA)             
1 25544U 98067A   26177.15504249  .00009461  00000+0  17697-3 0  9995
2 25544  51.6325 255.7018 0004358 233.1468 126.9121 15.49434804573143
PCSAT (NO-44)           
1 26931U 01043C   26177.23920626  .00000085  00000+0  62568-4 0  9995
2 26931  67.0493 220.8594 0006039 265.0853  94.9559 14.31958810291743
SAUDISAT 1C (SO-50)     
1 27607U 02058C   26177.25860940  .00000937  00000+0  12777-3 0  9999
2 27607  64.5520 100.9188 0075048 260.7782  98.4830 14.83064844265804
CUTE-1 (CO-55)          
1 27844U 03031E   26176.95866144  .00000278  00000+0  13913-3 0  9993
2 27844  98.6736 185.4073 0010067 153.3060 206.8639 14.24340671192925
CUBESAT XI-IV (CO-57)   
1 27848U 03031J   26176.95152158  .00000236  00000+0  12262-3 0  9990
2 27848  98.6767 185.1059 0009590 171.2746 188.8601 14.23625133192626
MOZHAETS 4 (RS22)       
1 27939U 03042A   26177.32360016  .00001150  00000+0  18532-3 0  9991
2 27939  98.3474   1.9406 0010021 236.8659 247.3406 14.73482566216898
CUBESAT XI-V            
1 28895U 05043F   26177.23557749  .00001423  00000+0  23139-3 0  9999
2 28895  98.2992 333.0476 0014267 171.8750 188.2691 14.72654434103085
CUTE-1.7+APD II (CO-65) 
1 32785U 08021C   26177.26407939  .00005208  00000+0  32855-3 0  9999
2 32785  97.8274 158.8717 0008853  11.3283 348.8143 15.09534115986562
SEEDS II (CO-66)        
1 32791U 08021J   26176.94816341  .00021509  00000+0  67552-3 0  9995
2 32791  97.7517 175.2655 0000426 222.9381 137.1827 15.33033686988631
YUBILEINY (RS30)        
1 32953U 08025A   26177.27296052  .00000111  00000+0  72492-3 0  9992
2 32953  82.5047 349.7875 0018583 293.0308  66.8812 12.43180220820827
KKS-1 (KISEKI)          
1 33499U 09002H   26177.09461228  .00001238  00000+0  15862-3 0  9992
2 33499  98.1187  99.6780 0006372 260.5600  99.4893 14.83144643937515
SWISSCUBE               
1 35932U 09051B   26176.72079970  .00000938  00000+0  19487-3 0  9991
2 35932  98.4029  84.7576 0006581 174.6664 185.4608 14.62496515890403
BEESAT-1                
1 35933U 09051C   26176.73467954  .00000781  00000+0  16647-3 0  9997
2 35933  98.3958  84.3893 0004779 186.3683 173.7458 14.61733092890439
ITUPSAT1                
1 35935U 09051E   26177.28115546  .00000737  00000+0  16205-3 0  9998
2 35935  98.4042  84.1263 0006725 201.3740 158.7180 14.60453195890066
XIWANG-1 (HOPE-1)       
1 36122U 09072B   26177.21177641  .00000369  00000+0  10835-2 0  9990
2 36122 100.4023 130.8997 0007029 209.2737 150.7982 13.16441661794196
O/OREOS (USA 219)       
1 37224U 10062C   26177.10301756  .00002323  00000+0  22455-3 0  9993
2 37224  71.9714  60.1433 0012893  44.0808 316.1388 14.93779064117978
JUGNU                   
1 37839U 11058B   26176.56637228  .00000404  00000+0  71365-4 0  9999
2 37839  19.9600 257.5233 0018497 168.3639 315.1616 14.13778751760212
SRMSAT                  
1 37841U 11058D   26177.21996469  .00000369  00000+0  56732-4 0  9991
2 37841  19.9735   4.7963 0011715 303.6491 228.3381 14.11577318759094
STRAND-1                
1 39090U 13009E   26177.24607153  .00000284  00000+0  10994-3 0  9994
2 39090  98.3924 357.2575 0008230 196.0425 164.0502 14.37168321698368
ZACUBE-1 (TSHEPISOSAT)  
1 39417U 13066B   26177.20569669  .00003428  00000+0  26694-3 0  9992
2 39417  97.8049 139.5889 0042047 216.9401 142.8926 15.01234415682088
GOMX-1                  
1 39430U 13066Q   26177.24225969  .00001798  00000+0  27403-3 0  9990
2 39430  97.6486  17.1335 0129843  48.8122 312.4196 14.69488586671248
